TIANMU-1 08             
1 57400U 23101B   26066.00237819  .00000346  00000+0  14775-4 0  9993
2 57400  97.2717 118.7901 0006380 134.2174 225.9592 15.29204229146020
STARLINK-30360          
1 57776U 23134F   26068.42736046 -.00000007  00000+0  94085-5 0  9997
2 57776  42.9980 196.2238 0001188 219.3661 140.7104 15.26742217139460
